IRIDIUM 36 [-]          
1 24967U 97056C   24018.54564544  .00000790  00000+0  26214-3 0  9990
2 24967  86.3954  29.4983 0002064  92.3669 267.7765 14.36587410378161
IRIDIUM 39 [-]          
1 25042U 97069D   24019.16976115  .00001116  00000+0  29698-3 0  9991
2 25042  86.3889  71.7496 0016953 219.4662 140.5307 14.47632940374672
IRIDIUM 38 [-]          
1 25043U 97069E   24018.73979791  .00000812  00000+0  26706-3 0  9996
2 25043  86.3945  89.8910 0003038  53.6329 306.5149 14.37059193371908
IRIDIUM 42 [-]          
1 25077U 97077A   24018.75430018  .00000758  00000+0  25767-3 0  9993
2 25077  86.3954  95.4287 0002184  75.2986 284.8453 14.35354829367234
IRIDIUM 44 [-]          
1 25078U 97077B   24018.69722304  .00000821  00000+0  25889-3 0  9995
2 25078  86.3931  78.7513 0000444  48.6695 311.4541 14.39167440369539
IRIDIUM 45 [-]          
1 25104U 97082A   24018.79805871  .00017029  00000+0  10381-2 0  9991
2 25104  86.3752 292.6027 0175227  65.1271 296.8062 14.98219447374308
IRIDIUM 24 [-]          
1 25105U 97082B   24018.83174383  .00001079  00000+0  33013-3 0  9990
2 25105  86.3920 298.5462 0011137 350.3617   9.7367 14.40941323368973
IRIDIUM 51 [-]          
1 25262U 98018A   24018.85686839  .00027552  00000+0  14325-2 0  9998
2 25262  86.3919 302.8323 0159161  16.2348 344.3900 15.05526443368750
